NORAD_CAT_ID,OBJECT_NAME,OBJECT_TYPE,EPOCH,MEAN_MOTION,ECCENTRICITY,INCLINATION,RA_OF_ASC_NODE,ARG_OF_PERICENTER,MEAN_ANOMALY,BSTAR,MEAN_MOTION_DOT,MEAN_MOTION_DDOT,TLE_LINE0,TLE_LINE1,TLE_LINE2,SEMIMAJOR_AXIS,PERIOD,APOGEE,PERIGEE,DECAYED
53422.0,STARLINK-4546,PAYLOAD,2024-03-20 07:09:32,15.08840201,0.00018,53.2178,103.5967,109.3554,250.7633,0.00013108,1.799e-05,0.0,0 STARLINK-4546,1 53422U 22097AL  24080.29828779  .00001799  00000-0  13108-3 0  9994,2 53422  53.2178 103.5967 0001800 109.3554 250.7633 15.08840201 89564,6917.88,95.438,540.99,538.5,0.0
53422.0,STARLINK-4546,PAYLOAD,2024-03-20 11:55:41,15.08843629,0.0001736,53.2174,102.7004,104.4378,255.6807,0.00014244,1.98e-05,0.0,0 STARLINK-4546,1 53422U 22097AL  24080.49700595  .00001980  00000-0  14244-3 0  9995,2 53422  53.2174 102.7004 0001736 104.4378 255.6807 15.08843629 90073,6917.869,95.437,540.935,538.533,0.0
53422.0,STARLINK-4546,PAYLOAD,2024-03-21 08:35:42,15.08841918,0.0001719,53.2168,98.835,89.3719,270.747,2.3394e-05,8.4e-07,0.0,0 STARLINK-4546,1 53422U 22097AL  24081.35813106  .00000084  00000-0  23394-4 0  9995,2 53422  53.2168  98.8350 0001719  89.3719 270.7470 15.08841918 89729,6917.875,95.437,540.929,538.55,0.0
53422.0,STARLINK-4546,PAYLOAD,2024-03-21 22:54:10,15.08837545,0.0001541,53.2148,96.1584,92.9927,267.1242,8.0668e-05,9.96e-06,0.0,0 STARLINK-4546,1 53422U 22097AL  24081.95429128  .00000996  00000-0  80668-4 0  9997,2 53422  53.2148  96.1584 0001541  92.9927 267.1242 15.08837545 90293,6917.888,95.438,540.819,538.687,0.0
53422.0,STARLINK-4546,PAYLOAD,2024-03-22 10:01:51,15.08847088,0.0001746,53.2164,94.0729,107.4032,252.7151,0.00017978,2.575e-05,0.0,0 STARLINK-4546,1 53422U 22097AL  24082.41796292  .00002575  00000-0  17978-3 0  9996,2 53422  53.2164  94.0729 0001746 107.4032 252.7151 15.08847088 89880,6917.859,95.437,540.932,538.516,0.0
53422.0,STARLINK-4546,PAYLOAD,2024-03-23 05:06:30,15.08836763,0.0001775,53.2146,90.5074,106.5217,253.597,1.5138e-05,-4.7e-07,0.0,0 STARLINK-4546,1 53422U 22097AL  24083.21285274 -.00000047  00000-0  15138-4 0  9998,2 53422  53.2146  90.5074 0001775 106.5217 253.5970 15.08836763 90003,6917.89,95.438,540.983,538.527,0.0
53422.0,STARLINK-4546,PAYLOAD,2024-03-23 17:49:35,15.08841971,0.000152,53.2155,88.129,96.3664,263.7501,7.1646e-05,8.52e-06,0.0,0 STARLINK-4546,1 53422U 22097AL  24083.74277236  .00000852  00000-0  71646-4 0  9994,2 53422  53.2155  88.1290 0001520  96.3664 263.7501 15.08841971 90567,6917.874,95.437,540.791,538.688,0.0
53422.0,STARLINK-4546,PAYLOAD,2024-03-24 06:32:40,15.08850374,0.0001567,53.2147,85.7503,99.1181,260.9988,0.00036565,5.538e-05,0.0,0 STARLINK-4546,1 53422U 22097AL  24084.27269038  .00005538  00000-0  36565-3 0  9990,2 53422  53.2147  85.7503 0001567  99.1181 260.9988 15.08850374 90165,6917.849,95.437,540.798,538.63,0.0
53422.0,STARLINK-4546,PAYLOAD,2024-03-25 06:23:28,15.08843134,0.0001494,53.2152,81.2886,94.6004,265.5159,0.0003431,5.177e-05,0.0,0 STARLINK-4546,1 53422U 22097AL  24085.26629735  .00005177  00000-0  34310-3 0  9999,2 53422  53.2152  81.2886 0001494  94.6004 265.5159 15.08843134 90313,6917.871,95.437,540.769,538.702,0.0
53422.0,STARLINK-4546,PAYLOAD,2024-03-25 09:34:14,15.08843817,0.000141,53.2159,80.6938,92.756,267.3593,0.00036633,5.548e-05,0.0,0 STARLINK-4546,1 53422U 22097AL  24085.39877742  .00005548  00000-0  36633-3 0  9998,2 53422  53.2159  80.6938 0001410  92.7560 267.3593 15.08843817 90810,6917.869,95.437,540.709,538.758,0.0
53422.0,STARLINK-4546,PAYLOAD,2024-03-26 06:14:16,15.08834844,0.0001337,53.2163,76.8243,96.8,263.3144,0.0001476,2.062e-05,0.0,0 STARLINK-4546,1 53422U 22097AL  24086.25990811  .00002062  00000-0  14760-3 0  9992,2 53422  53.2163  76.8243 0001337  96.8000 263.3144 15.08834844 90462,6917.896,95.438,540.686,538.836,0.0
53422.0,STARLINK-4546,PAYLOAD,2024-03-26 09:25:02,15.08833328,0.0001416,53.2172,76.2325,97.2341,262.8812,8.4066e-05,1.05e-05,0.0,0 STARLINK-4546,1 53422U 22097AL  24086.39238877  .00001050  00000-0  84066-4 0  9997,2 53422  53.2172  76.2325 0001416  97.2341 262.8812 15.08833328 90965,6917.901,95.438,540.745,538.786,0.0
53422.0,STARLINK-4546,PAYLOAD,2024-03-26 15:46:34,15.08833536,0.0001414,53.2175,75.0449,101.6244,258.4907,0.00014637,2.042e-05,0.0,0 STARLINK-4546,1 53422U 22097AL  24086.65734721  .00002042  00000-0  14637-3 0  9993,2 53422  53.2175  75.0449 0001414 101.6244 258.4907 15.08833536 91005,6917.9,95.438,540.743,538.787,0.0
53422.0,STARLINK-4546,PAYLOAD,2024-03-27 06:05:02,15.08850461,0.0001224,53.2165,72.3688,101.9103,258.2026,0.00043821,6.695e-05,0.0,0 STARLINK-4546,1 53422U 22097AL  24087.25350430  .00006695  00000-0  43821-3 0  9996,2 53422  53.2165  72.3688 0001224 101.9103 258.2026 15.08850461 90617,6917.848,95.437,540.56,538.867,0.0
53422.0,STARLINK-4546,PAYLOAD,2024-03-27 15:37:21,15.08851931,0.0001215,53.2163,70.5846,103.9648,256.1479,0.00043279,6.609e-05,0.0,0 STARLINK-4546,1 53422U 22097AL  24087.65094295  .00006609  00000-0  43279-3 0  9996,2 53422  53.2163  70.5846 0001215 103.9648 256.1479 15.08851931 91159,6917.844,95.437,540.549,538.868,0.0
53422.0,STARLINK-4546,PAYLOAD,2024-03-28 05:55:49,15.08853252,0.0001237,53.2163,67.909,105.5119,254.6009,0.00030892,4.634e-05,0.0,0 STARLINK-4546,1 53422U 22097AL  24088.24709974  .00004634  00000-0  30892-3 0  9992,2 53422  53.2163  67.9090 0001237 105.5119 254.6009 15.08853252 90761,6917.84,95.437,540.561,538.849,0.0
53422.0,STARLINK-4546,PAYLOAD,2024-03-28 09:06:35,15.08859016,0.0001349,53.2161,67.3141,104.4481,255.6661,0.00037893,5.751e-05,0.0,0 STARLINK-4546,1 53422U 22097AL  24088.37957711  .00005751  00000-0  37893-3 0  9999,2 53422  53.2161  67.3141 0001349 104.4481 255.6661 15.08859016 91269,6917.822,95.436,540.62,538.754,0.0
53422.0,STARLINK-4546,PAYLOAD,2024-03-29 04:11:13,15.0884517,0.0001842,53.2173,63.7454,127.025,233.0911,3.2701e-05,2.32e-06,0.0,0 STARLINK-4546,1 53422U 22097AL  24089.17445663  .00000232  00000-0  32701-4 0  9999,2 53422  53.2173  63.7454 0001842 127.0250 233.0911 15.08845170 90906,6917.865,95.437,541.004,538.455,0.0
53422.0,STARLINK-4546,PAYLOAD,2024-03-29 07:21:59,15.08848477,0.0001391,53.2169,63.1483,80.4806,279.6344,6.6432e-05,7.7e-06,0.0,0 STARLINK-4546,1 53422U 22097AL  24089.30693812  .00000770  00000-0  66432-4 0  9990,2 53422  53.2169  63.1483 0001391  80.4806 279.6344 15.08848477 91400,6917.854,95.437,540.682,538.757,0.0
53422.0,STARLINK-4546,PAYLOAD,2024-03-29 15:18:55,15.08843724,0.0001324,53.2176,61.6635,82.3944,277.7199,-5.2356e-06,-3.71e-06,0.0,0 STARLINK-4546,1 53422U 22097AL  24089.63814055 -.00000371  00000-0 -52356-5 0  9990,2 53422  53.2176  61.6635 0001324  82.3944 277.7199 15.08843724 91452,6917.869,95.437,540.65,538.818,0.0
53422.0,STARLINK-4546,PAYLOAD,2024-03-30 04:02:00,15.08839744,0.0001271,53.2156,59.2854,90.3835,269.7302,3.6853e-05,2.99e-06,0.0,0 STARLINK-4546,1 53422U 22097AL  24090.16806173  .00000299  00000-0  36853-4 0  9992,2 53422  53.2156  59.2854 0001271  90.3835 269.7302 15.08839744 91055,6917.881,95.438,540.625,538.867,0.0
53422.0,STARLINK-4546,PAYLOAD,2024-03-30 07:12:46,15.08845904,0.0001306,53.2164,58.6901,86.5013,273.6129,0.00018133,2.6e-05,0.0,0 STARLINK-4546,1 53422U 22097AL  24090.30054005  .00002600  00000-0  18133-3 0  9995,2 53422  53.2164  58.6901 0001306  86.5013 273.6129 15.08845904 91555,6917.862,95.437,540.631,538.824,0.0
53422.0,STARLINK-4546,PAYLOAD,2024-03-30 15:09:42,15.08840327,0.0001343,53.2177,57.2033,86.8553,273.2592,9.69e-05,1.255e-05,0.0,0 STARLINK-4546,1 53422U 22097AL  24090.63174231  .00001255  00000-0  96900-4 0  9999,2 53422  53.2177  57.2033 0001343  86.8553 273.2592 15.08840327 91603,6917.879,95.438,540.673,538.815,0.0
53422.0,STARLINK-4546,PAYLOAD,2024-03-31 03:52:47,15.08846201,0.0001342,53.2172,54.8228,92.3533,267.7613,0.00025339,3.748e-05,0.0,0 STARLINK-4546,1 53422U 22097AL  24091.16166344  .00003748  00000-0  25339-3 0  9990,2 53422  53.2172  54.8228 0001342  92.3533 267.7613 15.08846201 91683,6917.861,95.437,540.655,538.798,0.0
53422.0,STARLINK-4546,PAYLOAD,2024-03-31 21:22:02,15.08843051,0.000137,53.2166,51.5533,92.677,267.4379,0.00018265,2.62e-05,0.0,0 STARLINK-4546,1 53422U 22097AL  24091.89030382  .00002620  00000-0  18265-3 0  9990,2 53422  53.2166  51.5533 0001370  92.6770 267.4379 15.08843051 91312,6917.871,95.437,540.684,538.788,0.0
53422.0,STARLINK-4546,PAYLOAD,2024-04-01 03:43:34,15.08846888,0.0001365,53.2171,50.3649,89.0293,271.0856,0.00022446,3.287e-05,0.0,0 STARLINK-4546,1 53422U 22097AL  24092.15526205  .00003287  00000-0  22446-3 0  9990,2 53422  53.2171  50.3649 0001365  89.0293 271.0856 15.08846888 91836,6917.859,95.437,540.669,538.78,0.0
53422.0,STARLINK-4546,PAYLOAD,2024-04-02 03:34:21,15.08846078,0.0001527,53.2176,45.903,97.5169,262.5997,0.00012861,1.76e-05,0.0,0 STARLINK-4546,1 53422U 22097AL  24093.14886010  .00001760  00000-0  12861-3 0  9997,2 53422  53.2176  45.9030 0001527  97.5169 262.5997 15.08846078 91507,6917.862,95.437,540.783,538.67,0.0
53422.0,STARLINK-4546,PAYLOAD,2024-04-02 21:03:36,15.0883641,0.00015,53.2179,42.6329,98.4174,261.6988,-2.5781e-05,-6.98e-06,0.0,0 STARLINK-4546,1 53422U 22097AL  24093.87750510 -.00000698  00000-0 -25781-4 0  9999,2 53422  53.2179  42.6329 0001500  98.4174 261.6988 15.08836410 91613,6917.891,95.438,540.794,538.719,0.0
53422.0,STARLINK-4546,PAYLOAD,2024-04-03 12:57:28,15.08839419,0.0001414,53.219,39.6627,95.9914,264.124,-3.42e-05,-8.32e-06,0.0,0 STARLINK-4546,1 53422U 22097AL  24094.53990746 -.00000832  00000-0 -34200-4 0  9996,2 53422  53.2190  39.6627 0001414  95.9914 264.1240 15.08839419 92196,6917.882,95.438,540.725,538.769,0.0
53422.0,STARLINK-4546,PAYLOAD,2024-04-03 20:54:24,15.08830717,0.0001476,53.2197,38.1763,104.3725,255.7432,3.5413e-05,2.76e-06,0.0,0 STARLINK-4546,1 53422U 22097AL  24094.87111295  .00000276  00000-0  35413-4 0  9994,2 53422  53.2197  38.1763 0001476 104.3725 255.7432 15.08830717 92248,6917.909,95.438,540.795,538.753,0.0
